{
    "links": {
        "self": "http://www.neowsapp.com/rest/v1/neo/3389200?api_key=iIulBulltgU6a56xZRHN4H3l9WmuAYTsLGpBGhQ2"
    },
    "id": "3389200",
    "neo_reference_id": "3389200",
    "name": "(2007 UC2)",
    "designation": "2007 UC2",
    "nasa_jpl_url": "http://ssd.jpl.nasa.gov/sbdb.cgi?sstr=3389200",
    "absolute_magnitude_h": 23.0,
    "estimated_diameter": {
        "kilometers": {
            "estimated_diameter_min": 0.0667659413,
            "estimated_diameter_max": 0.1492931834
        },
        "meters": {
            "estimated_diameter_min": 66.7659413495,
            "estimated_diameter_max": 149.2931834393
        },
        "miles": {
            "estimated_diameter_min": 0.0414864197,
            "estimated_diameter_max": 0.0927664547
        },
        "feet": {
            "estimated_diameter_min": 219.0483710172,
            "estimated_diameter_max": 489.807047955
        }
    },
    "is_potentially_hazardous_asteroid": false,
    "close_approach_data": [
        {
            "close_approach_date": "2007-10-24",
            "close_approach_date_full": "2007-Oct-24 08:07",
            "epoch_date_close_approach": 1193213220000,
            "relative_velocity": {
                "kilometers_per_second": "7.9530799298",
                "kilometers_per_hour": "28631.0877473981",
                "miles_per_hour": "17790.244495043"
            },
            "miss_distance": {
                "astronomical": "0.092267486",
                "lunar": "35.892052054",
                "kilometers": "13803019.37585482",
                "miles": "8576798.528723716"
            },
            "orbiting_body": "Earth"
        }
    ],
    "orbital_data": {
        "orbit_id": "10",
        "orbit_determination_date": "2017-04-06 09:05:35",
        "first_observation_date": "2007-10-18",
        "last_observation_date": "2007-11-01",
        "data_arc_in_days": 14,
        "observations_used": 42,
        "orbit_uncertainty": "8",
        "minimum_orbit_intersection": ".0847188",
        "jupiter_tisserand_invariant": "4.160",
        "epoch_osculation": "2454393.5",
        "eccentricity": ".3521102219019637",
        "semi_major_axis": "1.664522936145502",
        "inclination": "12.47110300213314",
        "ascending_node_longitude": "211.6084476655193",
        "orbital_period": "784.3919042702554",
        "perihelion_distance": "1.078427395738401",
        "perihelion_argument": "172.9818974607491",
        "aphelion_distance": "2.250618476552602",
        "perihelion_time": "2454394.111291145815",
        "mean_anomaly": "359.7194453291838",
        "mean_motion": ".4589542523834682",
        "equinox": "J2000",
        "orbit_class": {
            "orbit_class_type": "AMO",
            "orbit_class_description": "Near-Earth asteroid orbits similar to that of 1221 Amor",
            "orbit_class_range": "1.017 AU < q (perihelion) < 1.3 AU"
        }
    },
    "is_sentry_object": false
}